C/2020 R2 (PANSTARRS),e,53.2286,195.0937,211.7440,406.9192,0.0001201,0.98846976,0.0000,02/24.5619/2022,2000,g  9.0,4.0
# From MPEC 2022-ED3
C/2020 R4 (ATLAS),e,164.4622,323.2743,46.7212,98.99430,0.0010007,0.98960953,0.0000,03/01.9755/2021,2000,g 13.5,4.0
# From MPEC 2020-W26
P/2020 R5 (PANSTARRS),e,11.4510,272.9773,82.4666,4.983494,0.0885938,0.31471969,59.8891,04/05.0/2022,2000,g  9.5,6.0
# From MPEC 2021-Y10
C/2020 R6 (Rankin),e,82.8121,12.1779,272.0008,348.6890,0.0001514,0.99101908,0.0000,09/09.4611/2019,2000,g 11.0,4.0
# From MPEC 2022-F14
C/2020 R7 (ATLAS),h,09/16.2121/2022,114.8910,268.2815,347.8312,1.000031,2.955962,2000,7.0,3.2
# From MPEC 2021-BE3
P/2020 S1 (PANSTARRS),e,13.7331,129.4617,254.9353,5.986215,0.0672939,0.50754382,29.7976,04/05.0/2022,2000,g 14.0,4.0
# From MPEC 2021-BE3
C/2020 S2 (PANSTARRS),e,22.4001,197.6705,202.2989,10.20158,0.0302484,0.82785366,14.1860,04/05.0/2022,2000,g 17.0,4.0
# From MPEC 2022-C56
C/2020 S3 (Erasmus),e,19.9505,222.7434,350.0138,173.0804,0.0004328,0.99770848,0.0000,12/12.6417/2020,2000,g 13.5,3.2
# From MPEC 2022-F14
C/2020 S4 (PANSTARRS),h,02/09.3185/2023,20.5729,117.7213,21.0061,1.000552,3.369506,2000,8.5,3.2
# From MPEC 2021-BE3
P/2020 S5 (PANSTARRS),e,12.3528,316.0020,53.1148,4.051756,0.1208479,0.33860552,73.0185,04/05.0/2022,2000,g 14.5,4.0
# From MPEC 2021-P47
P/2020 S6 (Leonard),e,15.4599,242.5503,176.6706,3.600096,0.1442889,0.47935233,71.7578,04/05.0/2022,2000,g 16.0,4.0
# From MPEC 2021-BE3
P/2020 S7 (PANSTARRS),e,16.0917,328.0203,40.4842,5.026329,0.0874637,0.41069912,43.9581,04/05.0/2022,2000,g 14.5,4.0
# From MPEC 2021-P47
C/2020 S8 (Lemmon),e,108.5252,24.0575,160.3269,274.8046,0.0002164,0.99139908,0.0000,04/10.9135/2021,2000,g 12.5,4.0
# From MPEC 2022-ED3
C/2020 T2 (Palomar),e,27.8668,83.0366,150.4201,322.1753,0.0001704,0.99362103,0.0000,07/11.2004/2021,2000,g 11.0,3.2
# From MPEC 2021-N06
P/2020 T3 (PANSTARRS),e,7.2959,74.0052,357.0368,3.517389,0.1494079,0.59172895,65.6647,04/05.0/2022,2000,g 18.0,3.2
# From MPEC 2021-N06
C/2020 T4 (PANSTARRS),h,07/05.2606/2021,83.8180,50.6158,79.6105,1.000077,2.191897,2000,13.0,3.2
# From MPEC 2021-BE3
C/2020 T5 (Lemmon),e,66.5864,237.8582,90.3097,819.4828,0.0000420,0.99769414,0.0000,10/09.5907/2020,2000,g 16.0,4.0
# From MPEC 2021-N06
P/2020 U2 (PANSTARRS),e,6.4211,342.8990,84.6380,3.778080,0.1342139,0.51077377,62.4435,04/05.0/2022,2000,g 18.0,4.0
# From MPEC 2021-W31
C/2020 U3 (Rankin),e,30.1705,282.6749,124.2812,65.67758,0.0018517,0.96534160,0.7832,04/05.0/2022,2000,g 15.0,4.0
# From MPEC 2022-ED3
C/2020 U4 (PANSTARRS),h,04/07.9897/2022,167.0358,120.0137,69.5344,1.001352,5.353679,2000,7.0,4.0
# From MPEC 2022-F14
C/2020 U5 (PANSTARRS),e,97.2702,107.3363,75.4175,5497,0.0000024,0.99931673,0.0000,04/27.8905/2022,2000,g  8.0,4.0
# From MPEC 2022-F14
C/2020 V2 (ZTF),h,05/08.5029/2023,131.6100,212.3646,162.4062,1.001153,2.228190,2000,4.9,4.0
# From MPEC 2021-N06
P/2020 V3 (PANSTARRS),e,23.0316,198.2603,249.3357,8.373024,0.0406800,0.25592528,17.0978,04/05.0/2022,2000,g  8.3,4.0
# From MPEC 2022-F14
P/2020 V4 (Rankin),e,14.2430,203.4937,256.9933,9.352930,0.0344574,0.44953047,9.0008,04/05.0/2022,2000,g  9.0,4.0
# From MPEC 2021-BE3
P/2020 W1 (Rankin),e,10.7909,124.2648,264.9340,7.205590,0.0509565,0.26596206,37.1379,04/05.0/2022,2000,g 10.0,4.0
# From MPEC 2021-BE3
C/2020 W5 (Lemmon),h,11/30.0705/2020,88.5837,75.4974,24.4810,1.000714,3.364359,2000,15.0,4.0
# From MPEC 2021-P47
P/2020 X1 (ATLAS),e,31.6939,56.0143,323.3105,4.527779,0.1023001,0.36552821,63.7819,04/05.0/2022,2000,g 13.0,4.0
# From MPEC 2021-U31
C/2020 X2 (ATLAS),e,18.1880,105.4500,347.3406,16.41624,0.0148181,0.76682444,7.4858,04/05.0/2022,2000,g 10.6,4.0
# From MPEC 2021-S45
C/2020 X4 (Leonard),e,80.6278,161.8886,140.3030,41.76653,0.0036514,0.87504596,1.8410,04/05.0/2022,2000,g  9.0,4.0
# From MPEC 2022-F14
C/2020 Y2 (ATLAS),e,101.2972,26.5127,266.1007,1134,0.0000258,0.99723804,0.0000,06/17.6804/2022,2000,g  6.5,4.0
# From MPEC 2021-R75
C/2020 Y3 (ATLAS),e,83.1012,191.4363,342.0171,147.4269,0.0005506,0.98644303,0.0000,12/03.4261/2020,2000,g 13.5,4.0
# From MPEC 2022-ED3
C/2021 A1 (Leonard),h,01/03.2983/2022,132.6856,255.8969,225.0921,1.000004,0.615247,2000,8.5,4.0
# From MPEC 2022-F14
C/2021 A2 (NEOWISE),e,106.9777,125.2319,338.8233,246.3124,0.0002550,0.99426501,0.0000,01/22.5874/2021,2000,g 13.5,4.0
# From MPEC 2022-ED3
C/2021 A4 (NEOWISE),e,111.5486,307.1036,204.7031,42.90927,0.0035065,0.97328137,0.0000,03/19.9938/2021,2000,g 16.0,4.0
# From MPEC 2021-BE3
P/2021 A5 (PANSTARRS),e,18.1875,328.7681,61.2122,3.047154,0.1852944,0.13982435,94.3175,04/05.0/2022,2000,g 15.0,4.0
# From MPEC 2022-ED3
C/2021 A6 (PANSTARRS),e,75.6120,164.0794,351.6894,10605,0.0000009,0.99925241,0.0000,05/04.0856/2021,2000,g  7.0,4.0
# From MPEC 2022-F14
C/2021 A7 (NEOWISE),e,78.1497,154.5179,356.0485,4732,0.0000030,0.99958419,0.0000,07/15.2913/2021,2000,g 10.0,4.0
# From MPEC 2022-ED3
C/2021 A9 (PANSTARRS),h,12/01.3766/2023,158.0254,314.8432,211.4584,1.003710,7.759772,2000,6.0,4.0
# From MPEC 2021-N06
C/2021 A10 (NEOWISE),e,151.7241,188.4872,82.5161,101.7389,0.0009604,0.98750839,0.0000,03/15.4677/2021,2000,g 19.0,4.0
# From MPEC 2022-ED3
C/2021 B2 (PANSTARRS),e,38.0905,120.5520,334.9663,350.0553,0.0001505,0.99282171,0.0000,05/04.2675/2021,2000,g 14.0,4.0
# From MPEC 2021-N06
C/2021 B3 (NEOWISE),e,119.4827,67.2864,293.5537,34.82368,0.0047961,0.93796696,1.8711,04/05.0/2022,2000,g 13.5,4.0
# From MPEC 2022-ED3
C/2021 C1 (Rankin),e,143.0443,186.8968,336.2962,93210,0.0000000,0.99996266,0.0000,12/07.0958/2020,2000,g 11.5,4.0
# From MPEC 2021-U31
P/2021 C2 (PANSTARRS),e,21.9287,66.4778,78.7746,9.536009,0.0334699,0.48724846,13.5541,04/05.0/2022,2000,g 12.0,4.0
# From MPEC 2021-N06
C/2021 C3 (Catalina),e,122.1644,181.9259,357.1295,62.95784,0.0019730,0.96385018,0.8220,04/05.0/2022,2000,g 14.0,4.0
# From MPEC 2022-ED3
C/2021 C4 (ATLAS),e,132.8500,194.2758,320.2308,23605,0.0000003,0.99980919,0.0000,01/17.1044/2021,2000,g  9.0,4.0
# From MPEC 2022-F14
C/2021 C5 (PANSTARRS),e,50.7845,323.6898,270.9178,4100,0.0000038,0.99920937,0.0000,02/11.0520/2023,2000,g  9.0,4.0
# From MPEC 2022-F14
C/2021 C6 (Lemmon),h,11/13.3036/2021,164.6258,332.1555,203.5578,1.001576,3.271182,2000,12.0,4.0
# From MPEC 2022-F14
C/2021 D1 (SWAN),e,31.4552,311.2683,72.2358,98.20552,0.0010127,0.99081683,0.0000,02/27.6429/2021,2000,g 13.0,4.0
# From MPEC 2022-F14
C/2021 D2 (ZTF),h,02/03.9825/2022,83.8301,305.6793,125.0300,1.001513,2.946300,2000,9.0,4.0
# From MPEC 2021-N06
A/2021 E2,e,167.4882,190.8192,342.4496,234.8016,0.0002739,0.99025775,0.0000,12/10.4651/2020,2000,g 15.0,2.0
# From MPEC 2022-F14
C/2021 E3 (ZTF),h,06/11.9072/2022,112.5549,104.4683,228.8471,1.000860,1.777399,2000,8.5,4.0
# From MPEC 2022-F14
A/2021 E4,e,116.3612,171.1738,48.2772,685.9206,0.0000549,0.99318288,0.0000,04/25.3225/2022,2000,g 13.5,2.0
# From MPEC 2022-F14
C/2021 F1 (Lemmon-PANSTARRS),e,107.3245,203.4515,146.8230,237.0606,0.0002700,0.99580073,0.0000,04/06.8737/2022,2000,g 13.5,4.0
# From MPEC 2021-J72
C/2021 G1 (Leonard),e,131.5618,270.6982,107.4749,75.06326,0.0015155,0.95439141,0.3892,04/05.0/2022,2000,g 14.0,4.0
# From MPEC 2022-F14
C/2021 G2 (ATLAS),e,48.4727,221.1171,343.3688,3791,0.0000042,0.99868675,0.0000,09/10.0470/2024,2000,g  5.5,4.0
# From MPEC 2022-ED3
C/2021 G3 (PANSTARRS),h,10/18.6784/2021,102.8913,147.4219,10.6574,1.001714,5.181655,2000,10.5,4.0
# From MPEC 2021-Y10
P/2021 HS (PANSTARRS),e,12.1707,262.3907,46.0865,4.194273,0.1147411,0.81009548,27.7240,04/05.0/2022,2000,g 22.0,4.0
# From MPEC 2022-C56
C/2021 J1 (Maury-Attard),e,92.7191,88.3243,147.3315,26.44279,0.0072484,0.93416528,2.9686,04/05.0/2022,2000,g 15.5,4.0
# From MPEC 2022-F14
C/2021 J2 (PANSTARRS),e,156.2098,23.3299,172.0572,117.5304,0.0007735,0.95995478,0.1505,04/05.0/2022,2000,g 12.0,4.0
# From MPEC 2021-S45
P/2021 J3 (ATLAS),e,14.5461,111.1985,126.0055,8.942636,0.0368558,0.45015802,37.0318,04/05.0/2022,2000,g  7.0,4.0
# From MPEC 2022-ED3
C/2021 K1 (ATLAS),e,16.2758,140.9032,184.2793,12.69945,0.0217784,0.80333019,7.3076,04/05.0/2022,2000,g 11.0,4.0
# From MPEC 2021-R75
C/2021 K2 (MASTER),h,09/09.3273/2021,100.8375,282.2482,343.3425,1.000548,5.466851,2000,8.0,4.0
# From MPEC 2021-U31
C/2021 K3 (Catalina),h,02/02.7481/2022,134.7755,114.4507,182.0024,1.003199,5.229867,2000,10.0,4.0
# From MPEC 2021-W31
P/2021 L2 (Leonard),e,21.0695,266.6578,51.5184,4.050537,0.1209025,0.52146513,30.7755,04/05.0/2022,2000,g 17.0,4.0
# From MPEC 2022-F14
C/2021 L3 (Borisov),h,02/13.9131/2022,78.5800,344.9686,91.6089,1.001514,8.457498,2000,6.0,4.0
# From MPEC 2021-R75
P/2021 L4 (PANSTARRS),e,16.9611,243.2233,234.5693,3.165082,0.1750357,0.11850535,165.2999,04/05.0/2022,2000,g 13.5,4.0
# From MPEC 2021-P47
P/2021 N1 (ZTF),e,11.5052,301.1663,21.1987,2.977217,0.1918617,0.67672923,58.0298,04/05.0/2022,2000,g 19.0,4.0
# From MPEC 2022-F14
P/2021 N2 (Fuls),e,13.0628,221.7424,177.3569,6.932749,0.0539940,0.45236288,7.7011,04/05.0/2022,2000,g  9.5,4.0
# From MPEC 2021-W31
C/2021 N3 (PANSTARRS),e,26.7475,337.4949,304.6785,160.5933,0.0004843,0.96444175,0.2874,04/05.0/2022,2000,g  8.5,4.0
# From MPEC 2022-A21
C/2021 O1 (Nishimura),e,27.5765,41.6070,74.4501,2726,0.0000069,0.99971133,0.0000,08/13.9304/2021,2000,g 10.5,4.0
# From MPEC 2022-C56
C/2021 O3 (PANSTARRS),h,04/21.0476/2022,56.7917,189.0196,299.9919,1.000094,0.287319,2000,10.5,4.0
# From MPEC 2022-CN4
C/2021 P1 (PANSTARRS),e,51.6361,359.6758,40.4176,4166,0.0000037,0.99895012,0.0000,06/02.1001/2022,2000,g 11.0,4.0
# From MPEC 2022-C56
C/2021 P2 (PANSTARRS),e,150.0433,32.0299,76.5515,5605,0.0000023,0.99909540,0.0000,01/21.8912/2023,2000,g  9.0,4.0
# From MPEC 2021-W31
P/2021 P3 (PANSTARRS),e,27.1617,358.2398,334.1412,4.415540,0.1062254,0.33966121,32.8678,04/05.0/2022,2000,g 14.0,4.0
# From MPEC 2022-F14
C/2021 P4 (ATLAS),e,56.3108,348.0947,175.8232,314.8103,0.0001765,0.99656792,0.0000,07/30.3775/2022,2000,g  9.5,4.0
# From MPEC 2022-F14
C/2021 Q3 (ATLAS),e,77.7764,307.9026,114.0948,74.88368,0.0015210,0.93049775,0.1048,04/05.0/2022,2000,g  8.0,4.0
